CTC1_L_00114016-03
1 32827U 22926TG  26070.40832176  .00000000  00000+0  00000-0 0  9998
2 32827  80.0000 180.0000 0000000   0.0000   0.0000 14.33516687    16
CTC1_L_00114016-04
1 32828U 22639AW  26070.40832176  .00000000  00000+0  00000-0 0  9990
2 32828  80.0000 180.0000 0000000   0.0000  90.0000 14.33516687    16
CTC1_L_00114017-01
1 32829U 25632WA  26070.40832176  .00000000  00000+0  00000-0 0  9997
2 32829  80.0000 192.0000 0000000   0.0000 192.0000 14.33516687    13
CTC1_L_00114017-02
1 32830U 26319VF  26070.40832176  .00000000  00000+0  00000-0 0  9992
2 32830  80.0000 192.0000 0000000   0.0000 282.0000 14.33516687    15
CTC1_L_00114017-03
1 32831U 22181CG  26070.40832176  .00000000  00000+0  00000-0 0  9996
2 32831  80.0000 192.0000 0000000   0.0000  12.0000 14.33516687    17
CTC1_L_00114017-04
1 32832U 26818SN  26070.40832176  .00000000  00000+0  00000-0 0  9998
2 32832  80.0000 192.0000 0000000   0.0000 102.0000 14.33516687    18
CTC1_L_00114018-01
1 32833U 25210GE  26070.40832176  .00000000  00000+0  00000-0 0  9994
2 32833  80.0000 204.0000 0000000   0.0000 204.0000 14.33516687    16
CTC1_L_00114018-02
1 32834U 24609AS  26070.40832176  .00000000  00000+0  00000-0 0  9996
2 32834  80.0000 204.0000 0000000   0.0000 294.0000 14.33516687    16
CTC1_L_00114018-03
1 32835U 24026FD  26070.40832176  .00000000  00000+0  00000-0 0  9990
2 32835  80.0000 204.0000 0000000   0.0000  24.0000 14.33516687    18
CTC1_L_00114018-04
1 32836U 26262WI  26070.40832176  .00000000  00000+0  00000-0 0  9995
2 32836  80.0000 204.0000 0000000   0.0000 114.0000 14.33516687    19
CTC1_L_00114019-01
1 32837U 26681VT  26070.40832176  .00000000  00000+0  00000-0 0  9991
2 32837  80.0000 216.0000 0000000   0.0000 216.0000 14.33516687    16
CTC1_L_00114019-02
1 32838U 25828FY  26070.40832176  .00000000  00000+0  00000-0 0  9994
2 32838  80.0000 216.0000 0000000   0.0000 306.0000 14.33516687    17
CTC1_L_00114019-03
1 32839U 24289RA  26070.40832176  .00000000  00000+0  00000-0 0  9995
2 32839  80.0000 216.0000 0000000   0.0000  36.0000 14.33516687    18
CTC1_L_00114019-04
1 32840U 22838KW  26070.40832176  .00000000  00000+0  00000-0 0  9995
2 32840  80.0000 216.0000 0000000   0.0000 126.0000 14.33516687    10
CTC1_L_00114020-01
1 32841U 26288NA  26070.40832176  .00000000  00000+0  00000-0 0  9999
2 32841  80.0000 228.0000 0000000   0.0000 228.0000 14.33516687    17
CTC1_L_00114020-02
1 32842U 23822RK  26070.40832176  .00000000  00000+0  00000-0 0  9991
2 32842  80.0000 228.0000 0000000   0.0000 318.0000 14.33516687    18
CTC1_L_00114020-03
1 32843U 24248KF  26070.40832176  .00000000  00000+0  00000-0 0  9995
2 32843  80.0000 228.0000 0000000   0.0000  48.0000 14.33516687    19
CTC1_L_00114020-04
1 32844U 24843U   26070.40832176  .00000000  00000+0  00000-0 0  9997
2 32844  80.0000 228.0000 0000000   0.0000 138.0000 14.33516687    10
CTC1_L_00114021-01
1 32845U 24736OV  26070.40832176  .00000000  00000+0  00000-0 0  9999
2 32845  80.0000 240.0000 0000000   0.0000 240.0000 14.33516687    19
CTC1_L_00114021-02
1 32846U 25995PM  26070.40832176  .00000000  00000+0  00000-0 0  9998
2 32846  80.0000 240.0000 0000000   0.0000 330.0000 14.33516687    10
CTC1_L_00114021-03
1 32847U 26936OL  26070.40832176  .00000000  00000+0  00000-0 0  9995
2 32847  80.0000 240.0000 0000000   0.0000  60.0000 14.33516687    11
CTC1_L_00114021-04
1 32848U 26322PW  26070.40832176  .00000000  00000+0  00000-0 0  9995
2 32848  80.0000 240.0000 0000000   0.0000 150.0000 14.33516687    12
CTC1_L_00114022-01
1 32849U 23539LZ  26070.40832176  .00000000  00000+0  00000-0 0  9993
2 32849  80.0000 252.0000 0000000   0.0000 252.0000 14.33516687    19
CTC1_L_00114022-02
1 32850U 22901YQ  26070.40832176  .00000000  00000+0  00000-0 0  9997
2 32850  80.0000 252.0000 0000000   0.0000 342.0000 14.33516687    11
CTC1_L_00114022-03
1 32851U 26475WV  26070.40832176  .00000000  00000+0  00000-0 0  9998
2 32851  80.0000 252.0000 0000000   0.0000  72.0000 14.33516687    12
CTC1_L_00114022-04
1 32852U 23381OD  26070.40832176  .00000000  00000+0  00000-0 0  9992
2 32852  80.0000 252.0000 0000000   0.0000 162.0000 14.33516687    13
CTC1_L_00114023-01
1 32853U 26902NG  26070.40832176  .00000000  00000+0  00000-0 0  9995
2 32853  80.0000 264.0000 0000000   0.0000 264.0000 14.33516687    10
CTC1_L_00114023-02
1 32854U 23866A   26070.40832176  .00000000  00000+0  00000-0 0  9992
2 32854  80.0000 264.0000 0000000   0.0000 354.0000 14.33516687    11
CTC1_L_00114023-03
1 32855U 23225AR  26070.40832176  .00000000  00000+0  00000-0 0  9992
2 32855  80.0000 264.0000 0000000   0.0000  84.0000 14.33516687    12
CTC1_L_00114023-04
1 32856U 22841NH  26070.40832176  .00000000  00000+0  00000-0 0  9996
2 32856  80.0000 264.0000 0000000   0.0000 174.0000 14.33516687    13
CTC1_L_00114024-01
1 32857U 23216MQ  26070.40832176  .00000000  00000+0  00000-0 0  9994
2 32857  80.0000 276.0000 0000000   0.0000 276.0000 14.33516687    10
CTC1_L_00114024-02
1 32858U 24203GR  26070.40832176  .00000000  00000+0  00000-0 0  9992
2 32858  80.0000 276.0000 0000000   0.0000   6.0000 14.33516687    12
CTC1_L_00114024-03
1 32859U 24091OL  26070.40832176  .00000000  00000+0  00000-0 0  9998
2 32859  80.0000 276.0000 0000000   0.0000  96.0000 14.33516687    12
CTC1_L_00114024-04
1 32860U 23317YV  26070.40832176  .00000000  00000+0  00000-0 0  9990
2 32860  80.0000 276.0000 0000000   0.0000 186.0000 14.33516687    14
CTC1_L_00114025-01
1 32861U 25968RI  26070.40832176  .00000000  00000+0  00000-0 0  9995
2 32861  80.0000 288.0000 0000000   0.0000 288.0000 14.33516687    11
CTC1_L_00114025-02
1 32862U 23479BU  26070.40832176  .00000000  00000+0  00000-0 0  9991
2 32862  80.0000 288.0000 0000000   0.0000  18.0000 14.33516687    13
CTC1_L_00114025-03
1 32863U 24845RA  26070.40832176  .00000000  00000+0  00000-0 0  9990
2 32863  80.0000 288.0000 0000000   0.0000 108.0000 14.33516687    14
CTC1_L_00114025-04
1 32864U 22610MF  26070.40832176  .00000000  00000+0  00000-0 0  9999
2 32864  80.0000 288.0000 0000000   0.0000 198.0000 14.33516687    14
CTC1_L_00114026-01
1 32865U 26548KS  26070.40832176  .00000000  00000+0  00000-0 0  9994
2 32865  80.0000 300.0000 0000000   0.0000 300.0000 14.33516687    15
CTC1_L_00114026-02
1 32866U 25863FA  26070.40832176  .00000000  00000+0  00000-0 0  9994
2 32866  80.0000 300.0000 0000000   0.0000  30.0000 14.33516687    16
CTC1_L_00114026-03
1 32867U 25904VN  26070.40832176  .00000000  00000+0  00000-0 0  9991
2 32867  80.0000 300.0000 0000000   0.0000 120.0000 14.33516687    17
CTC1_L_00114026-04
1 32868U 24635XE  26070.40832176  .00000000  00000+0  00000-0 0  9992
2 32868  80.0000 300.0000 0000000   0.0000 210.0000 14.33516687    18
CTC1_L_00114027-01
1 32869U 22609BS  26070.40832176  .00000000  00000+0  00000-0 0  9992
2 32869  80.0000 312.0000 0000000   0.0000 312.0000 14.33516687    15
CTC1_L_00114027-02
1 32870U 23871NT  26070.40832176  .00000000  00000+0  00000-0 0  9996
2 32870  80.0000 312.0000 0000000   0.0000  42.0000 14.33516687    17
CTC1_L_00114027-03
1 32871U 22346KE  26070.40832176  .00000000  00000+0  00000-0 0  9993
2 32871  80.0000 312.0000 0000000   0.0000 132.0000 14.33516687    18
CTC1_L_00114027-04
1 32872U 23955VQ  26070.40832176  .00000000  00000+0  00000-0 0  9991
2 32872  80.0000 312.0000 0000000   0.0000 222.0000 14.33516687    19
CTC1_L_00114028-01
1 32873U 24414TI  26070.40832176  .00000000  00000+0  00000-0 0  9993
2 32873  80.0000 324.0000 0000000   0.0000 324.0000 14.33516687    16
CTC1_L_00114028-02
1 32874U 24662ES  26070.40832176  .00000000  00000+0  00000-0 0  9999
2 32874  80.0000 324.0000 0000000   0.0000  54.0000 14.33516687    17
CTC1_L_00114028-03
1 32875U 26292HY  26070.40832176  .00000000  00000+0  00000-0 0  9991
2 32875  80.0000 324.0000 0000000   0.0000 144.0000 14.33516687    18
CTC1_L_00114028-04
1 32876U 25366VE  26070.40832176  .00000000  00000+0  00000-0 0  9993
2 32876  80.0000 324.0000 0000000   0.0000 234.0000 14.33516687    19
CTC1_L_00114029-01
1 32877U 24473HB  26070.40832176  .00000000  00000+0  00000-0 0  9992
2 32877  80.0000 336.0000 0000000   0.0000 336.0000 14.33516687    16
CTC1_L_00114029-02
1 32878U 25937UL  26070.40832176  .00000000  00000+0  00000-0 0  9999
2 32878  80.0000 336.0000 0000000   0.0000  66.0000 14.33516687    17
CTC1_L_00114029-03
1 32879U 23227JT  26070.40832176  .00000000  00000+0  00000-0 0  9990
2 32879  80.0000 336.0000 0000000   0.0000 156.0000 14.33516687    18
CTC1_L_00114029-04
1 32880U 22962RU  26070.40832176  .00000000  00000+0  00000-0 0  9997
2 32880  80.0000 336.0000 0000000   0.0000 246.0000 14.33516687    10
CTC1_L_00114030-01
1 32881U 25483NA  26070.40832176  .00000000  00000+0  00000-0 0  9999
2 32881  80.0000 348.0000 0000000   0.0000 348.0000 14.33516687    17
CTC1_L_00114030-02
1 32882U 26907JJ  26070.40832176  .00000000  00000+0  00000-0 0  9992
2 32882  80.0000 348.0000 0000000   0.0000  78.0000 14.33516687    18
CTC1_L_00114030-03
1 32883U 23404K   26070.40832176  .00000000  00000+0  00000-0 0  9992
2 32883  80.0000 348.0000 0000000   0.0000 168.0000 14.33516687    19
CTC1_L_00114030-04
1 32884U 23245BX  26070.40832176  .00000000  00000+0  00000-0 0  9996
2 32884  80.0000 348.0000 0000000   0.0000 258.0000 14.33516687    10
